ONEWEB-0136             
1 47282U 20100AA  25177.08774806 -.00000368  00000+0 -10575-2 0  9996
2 47282  87.8877  61.4630 0002304  80.5640 279.5749 13.12442574217952
ONEWEB-0137             
1 47283U 20100AB  25176.43568293  .00000472  00000+0  12759-2 0  9996
2 47283  87.8873  61.6005 0001800  73.3008 286.8318 13.12442578217772
ONEWEB-0138             
1 47284U 20100AC  25177.40567296 -.00000251  00000+0 -73266-3 0  9995
2 47284  87.8871  61.4184 0001965  79.2381 280.8968 13.12443392217981
ONEWEB-0139             
1 47285U 20100AD  25177.36851628  .00000350  00000+0  93701-3 0  9990
2 47285  87.8880  61.4176 0001851  79.1643 280.9694 13.12442364218051
ONEWEB-0140             
1 47286U 20100AE  25177.39918448 -.00000387  00000+0 -11113-2 0  9996
2 47286  87.8873  61.3965 0001976  79.8174 280.3177 13.12442994218029
ONEWEB-0141             
1 47287U 20100AF  25177.36823472  .00000326  00000+0  87034-3 0  9993
2 47287  87.8873  61.4207 0001754  68.3289 291.8026 13.12441714218001
ONEWEB-0142             
1 47288U 20100AG  25176.74726242  .00000514  00000+0  13940-2 0  9995
2 47288  87.8893  61.5478 0001987  71.0427 289.0917 13.12442287217911
ONEWEB-0143             
1 47289U 20100AH  25177.36674875  .00000388  00000+0  10421-2 0  9999
2 47289  87.8874  61.4263 0001850  80.3578 279.7759 13.12442138217972
